{
"type": "FeatureCollection",
"name": "hac_dolores",
"crs": { "type": "name", "properties": { "name": "urn:ogc:def:crs:OGC:1.3:CRS84" } },
"features": [
{ "type": "Feature", "properties": { "Hacienda": "Dolores", "Distrito": "Etla", "Fecha": "Calca de 1908", "Fuente": "Mapoteca Orozco y Berra", "Mapa Ref": "https://mapoteca-dgsiap.agricultura.gob.mx/buscador/ficha.php?fichaNum=A22AC564-736B42BD-0DAEBB69-994DB5CA&registro=MTk3MzU=&params=MCMjMCMjSGFjaWVuZGEjI0RvbG9yZXMjIyMjIyMjIw==" }, "geometry": { "type": "MultiPolygon", "coordinates": [ [ [ [ -96.795280209880886, 17.189976738086848 ], [ -96.79242246567037, 17.190690759987525 ], [ -96.791982812714892, 17.187393635866314 ], [ -96.793609528650123, 17.187225627970157 ], [ -96.791125489451744, 17.183067383986664 ], [ -96.789762565289806, 17.183151389839299 ], [ -96.790004374415304, 17.186028567299395 ], [ -96.791001496847102, 17.189593079608372 ], [ -96.789454808220967, 17.18999773877028 ], [ -96.789191016447703, 17.186952614813894 ], [ -96.787578915614603, 17.187293117767499 ], [ -96.787480100933351, 17.186752450950248 ], [ -96.785695775451742, 17.186805607563095 ], [ -96.785422958932713, 17.185267754589795 ], [ -96.783877856644025, 17.185336411331289 ], [ -96.784192266993472, 17.190863195548211 ], [ -96.782180040757041, 17.191009086686275 ], [ -96.780841550983709, 17.190743049818803 ], [ -96.780751719455296, 17.188855035263799 ], [ -96.780185780826301, 17.188897944899235 ], [ -96.780356460730289, 17.184812903034761 ], [ -96.784488711037227, 17.184014764588298 ], [ -96.783814974574142, 17.179380344380466 ], [ -96.78557567253101, 17.17676270397218 ], [ -96.790575923257407, 17.176514810148575 ], [ -96.790312131484114, 17.180400178364838 ], [ -96.794127634035831, 17.178539270509777 ], [ -96.796526135844445, 17.181414354188014 ], [ -96.796499186385915, 17.177852676765276 ], [ -96.801916027549154, 17.176642549098823 ], [ -96.801718398186651, 17.175501073917388 ], [ -96.804224697829341, 17.175235014782281 ], [ -96.805895564257796, 17.181139721256081 ], [ -96.806254890371449, 17.181242708653251 ], [ -96.80586861479928, 17.179560573999016 ], [ -96.806200991454403, 17.179680726980674 ], [ -96.80662319963794, 17.181431518732744 ], [ -96.809686454756786, 17.182469970731088 ], [ -96.811366304338094, 17.182796094951218 ], [ -96.811348338032417, 17.183165129560681 ], [ -96.809866117813613, 17.183216622703565 ], [ -96.809937983036335, 17.184675589138322 ], [ -96.812013091342664, 17.184529693011839 ], [ -96.812354451150625, 17.184709917621976 ], [ -96.812192754399476, 17.185499470990358 ], [ -96.810710534180686, 17.185473724737943 ], [ -96.810315275455679, 17.186117379974924 ], [ -96.810243410232943, 17.186898345326235 ], [ -96.810863247778983, 17.18697558347877 ], [ -96.810710534180686, 17.187507667654447 ], [ -96.809911033577819, 17.187584905552914 ], [ -96.80988408411929, 17.187782291147126 ], [ -96.807817958965828, 17.188048332267396 ], [ -96.80775507689593, 17.189215475892521 ], [ -96.807314902406716, 17.189258385444457 ], [ -96.807305919253878, 17.186512154080493 ], [ -96.809434926477223, 17.186125962029642 ], [ -96.809219330809043, 17.18511327682841 ], [ -96.808994751988024, 17.185087530522324 ], [ -96.80864440902721, 17.183817374979821 ], [ -96.80813236931526, 17.183868867941438 ], [ -96.808446779664706, 17.185130441030481 ], [ -96.807638295908987, 17.185190515725203 ], [ -96.807368801323761, 17.183963271667231 ], [ -96.80689269422318, 17.184023346740418 ], [ -96.807126256197037, 17.185276336683874 ], [ -96.806587267026572, 17.18530208296372 ], [ -96.806254890371449, 17.183954689512326 ], [ -96.805015215279369, 17.184057675344917 ], [ -96.805814715882235, 17.187293117767499 ], [ -96.803128015135968, 17.187708650260905 ], [ -96.803655598682539, 17.189115708016015 ], [ -96.80046811475539, 17.189640726828138 ], [ -96.798709502933534, 17.189913736022277 ], [ -96.799215103832339, 17.19142577965685 ], [ -96.797522439953781, 17.191614784243153 ], [ -96.797148734941644, 17.190396751302984 ], [ -96.794796591629876, 17.191614784243157 ], [ -96.795016418107608, 17.191173773241715 ], [ -96.795478053710852, 17.190837764154772 ], [ -96.795280209880886, 17.189976738086848 ] ] ] ] } }
]
}
