{
"type": "FeatureCollection",
"name": "H_Montoya",
"crs": { "type": "name", "properties": { "name": "urn:ogc:def:crs:OGC:1.3:CRS84" } },
"features": [
{ "type": "Feature", "properties": { "Hacienda": "Montoya", "Distrito": "Centro", "Fecha": "Calca de 1909", "Fuente": "Mapoteca Orozco y Berra", "Mapa Refer": "https://mapoteca-dgsiap.agricultura.gob.mx/buscador/ficha.php?fichaNum=9FBA615E-2B7D315E-33DE47DA-077E1D2C&registro=MTk4NzY=&params=MCMjMCMjIyNDRU5UUk8jIyMjMTkwOSMjUk9TRU5ETyMj" }, "geometry": { "type": "MultiPolygon", "coordinates": [ [ [ [ -96.740281223108369, 17.065619106551377 ], [ -96.741160748306541, 17.065781365951338 ], [ -96.742055703771342, 17.065855120177414 ], [ -96.742750065769897, 17.066489405318546 ], [ -96.743336415901993, 17.066813922464135 ], [ -96.745002884698522, 17.067610462156377 ], [ -96.748474694691282, 17.069395288751931 ], [ -96.74967825548876, 17.067020433081172 ], [ -96.750187454287726, 17.066710667069927 ], [ -96.750866386019624, 17.06640090054454 ], [ -96.752270540283376, 17.06592887437435 ], [ -96.755094279077511, 17.065062260719699 ], [ -96.756915050540343, 17.064129263648972 ], [ -96.758365495603996, 17.062643096629142 ], [ -96.762284783329136, 17.059014291711836 ], [ -96.761883596396643, 17.055355912927119 ], [ -96.762269353062493, 17.048389305980646 ], [ -96.765842867084444, 17.043107361081653 ], [ -96.768182522226226, 17.045415267837178 ], [ -96.77055931475121, 17.04669348085303 ], [ -96.777021219428519, 17.050244026685661 ], [ -96.781403430646478, 17.053439460242156 ], [ -96.782814651208213, 17.056279799733748 ], [ -96.7841186106169, 17.062255879953934 ], [ -96.785167868748204, 17.065678109985871 ], [ -96.786896058611276, 17.070663832812965 ], [ -96.768179145183623, 17.080325133539155 ], [ -96.765409412322768, 17.081851722879353 ], [ -96.764491311458016, 17.082301584448757 ], [ -96.763920391592521, 17.082699821653641 ], [ -96.761220094931488, 17.084573000058441 ], [ -96.75949190506843, 17.085546455419337 ], [ -96.758535228537085, 17.086328165892635 ], [ -96.756999917006851, 17.085852502834737 ], [ -96.756151252341965, 17.085528018812003 ], [ -96.75545689034341, 17.084967545078705 ], [ -96.75396015447987, 17.083669599437268 ], [ -96.75213938301701, 17.082460141956322 ], [ -96.749716831155382, 17.080985183190815 ], [ -96.74851327035789, 17.080395196417722 ], [ -96.747926920225794, 17.079406964390802 ], [ -96.74738686089357, 17.078595725230738 ], [ -96.746908522627891, 17.07785823202294 ], [ -96.746491905428769, 17.077179735696031 ], [ -96.746353033029067, 17.076707736795427 ], [ -96.746167869829449, 17.076560236894029 ], [ -96.746090718496262, 17.076353736836104 ], [ -96.746137009296177, 17.07607348639181 ], [ -96.745905555296659, 17.075793235526429 ], [ -96.74562781049724, 17.075571984545796 ], [ -96.745180332764832, 17.074893479902073 ], [ -96.745180332764804, 17.074495226026958 ], [ -96.74467113396588, 17.073706090836925 ], [ -96.744424249699719, 17.073477462260989 ], [ -96.744053923300484, 17.072939077733448 ], [ -96.743945911434054, 17.072518694213898 ], [ -96.743783893634387, 17.072231062838938 ], [ -96.743448285335091, 17.071700049904745 ], [ -96.743282409968785, 17.07141979246904 ], [ -96.742873507902985, 17.070575330018787 ], [ -96.742750065769911, 17.070302446139177 ], [ -96.742480036103814, 17.069926308245542 ], [ -96.742410599903948, 17.069616547057915 ], [ -96.742101994571257, 17.069019149029629 ], [ -96.742094279437936, 17.068849517142091 ], [ -96.7416776622388, 17.068288993286654 ], [ -96.741484783905875, 17.067905475994422 ], [ -96.741384487172752, 17.067551459332801 ], [ -96.74100644564021, 17.067042559205156 ], [ -96.740281223108369, 17.065619106551377 ] ] ] ] } }
]
}
