{
"type": "FeatureCollection",
"name": "hac_blanca",
"crs": { "type": "name", "properties": { "name": "urn:ogc:def:crs:OGC:1.3:CRS84" } },
"features": [
{ "type": "Feature", "properties": { "Hacienda": "Blanca", "Distrito": "Etla", "Fecha": "Calca de 1908", "Fuente": "Mapoteca Orozco y Berra", "Mapa Refer": "https://mapoteca-dgsiap.agricultura.gob.mx/buscador/ficha.php?fichaNum=E987BA6A-3D623AA6-85675D2E-3788C626&registro=MTk2NjA=&params=MCMjMCMjSGFjaWVuZGEjI0JsYW5jYSMjIyMjIyMj" }, "geometry": { "type": "MultiPolygon", "coordinates": [ [ [ [ -96.773619096099381, 17.137038695900863 ], [ -96.766944613538385, 17.125552513583102 ], [ -96.77817355458987, 17.122539204755711 ], [ -96.778694577454658, 17.125621192417444 ], [ -96.783581412600284, 17.125123270293724 ], [ -96.787489084086204, 17.123629495923009 ], [ -96.789141984208982, 17.128368324990074 ], [ -96.795798500464301, 17.125818643924898 ], [ -96.795555955337591, 17.124393554427812 ], [ -96.79946362682351, 17.122444769786895 ], [ -96.800757200832635, 17.124256195826934 ], [ -96.806129126231681, 17.120521719991995 ], [ -96.80824016714935, 17.11634932037915 ], [ -96.812390383761993, 17.113421716641568 ], [ -96.81469905404218, 17.116950289054902 ], [ -96.816019577509834, 17.118006272168476 ], [ -96.81367497461828, 17.120684836594528 ], [ -96.811285455962519, 17.122092784480675 ], [ -96.804170798912295, 17.127492680889496 ], [ -96.800748217679796, 17.130548832572831 ], [ -96.799257014308154, 17.1332358008321 ], [ -96.797532248962639, 17.133845299409305 ], [ -96.796382405398973, 17.133862468354362 ], [ -96.793121520917623, 17.134763835742575 ], [ -96.791917778436911, 17.136060080227075 ], [ -96.79092963162438, 17.137553754711675 ], [ -96.789097068444775, 17.13847227271426 ], [ -96.785791268199219, 17.137708272076512 ], [ -96.784524643648595, 17.138137486304633 ], [ -96.781191893944523, 17.13642062344335 ], [ -96.779745606337087, 17.136703906908242 ], [ -96.781012230887683, 17.141553996200752 ], [ -96.781865630407609, 17.143227891432055 ], [ -96.778020840991573, 17.144901771578624 ], [ -96.774203001034067, 17.138583868050084 ], [ -96.773619096099381, 17.137038695900863 ] ] ] ] } }
]
}
