{
"type": "FeatureCollection",
"name": "H_San_Luis",
"crs": { "type": "name", "properties": { "name": "urn:ogc:def:crs:OGC:1.3:CRS84" } },
"features": [
{ "type": "Feature", "properties": { "FID": 0 }, "geometry": { "type": "MultiPolygon", "coordinates": [ [ [ [ -96.706344418382798, 17.080760374181082 ], [ -96.707614093652623, 17.083650807579748 ], [ -96.709777553487342, 17.088265826569536 ], [ -96.710579453657743, 17.088696981676971 ], [ -96.709777553487456, 17.094892730092031 ], [ -96.709674048191872, 17.097001845723074 ], [ -96.710236975459992, 17.098397707857245 ], [ -96.709301425261188, 17.099156179559138 ], [ -96.706661837200244, 17.099611261097706 ], [ -96.706934222609675, 17.101169430794759 ], [ -96.701558076740696, 17.112424949542035 ], [ -96.700956651612884, 17.11922661322193 ], [ -96.698016350988041, 17.122994567845392 ], [ -96.693068032162969, 17.127067119392674 ], [ -96.693154831204893, 17.128071606305813 ], [ -96.692920943655182, 17.129572339556216 ], [ -96.692519993569974, 17.130689899000352 ], [ -96.692185868498981, 17.131999031518351 ], [ -96.691133374525322, 17.132462015201853 ], [ -96.690398299369093, 17.133180435875808 ], [ -96.690531949397524, 17.134026572219302 ], [ -96.690147705565863, 17.135287787165677 ], [ -96.689329099141901, 17.136788462152779 ], [ -96.688928149056693, 17.137331256503998 ], [ -96.688293311421788, 17.138257196149478 ], [ -96.687922506069498, 17.138402206394439 ], [ -96.687391173730092, 17.139406632048445 ], [ -96.686569299531925, 17.139886891932271 ], [ -96.68593446189702, 17.140445641481229 ], [ -96.684952060711751, 17.141450056087557 ], [ -96.684250398062645, 17.142312118862566 ], [ -96.683261461328996, 17.142137844100866 ], [ -96.682843804990227, 17.142201700551503 ], [ -96.682158848594653, 17.143207435997081 ], [ -96.681741192255913, 17.143845995358358 ], [ -96.681390360931346, 17.144676119245965 ], [ -96.679569379294449, 17.147070686594699 ], [ -96.679168429209227, 17.14774115991932 ], [ -96.678232879010409, 17.14895439121014 ], [ -96.677464391347101, 17.149529076949491 ], [ -96.677297328811591, 17.150678443091898 ], [ -96.675877297259831, 17.152985135615697 ], [ -96.675609997202983, 17.153934941853404 ], [ -96.675008572075171, 17.155132169682727 ], [ -96.674524090722215, 17.155978206025328 ], [ -96.673755603058922, 17.156824238511334 ], [ -96.67347159674857, 17.157654304371945 ], [ -96.672385690267788, 17.157861820256986 ], [ -96.671232958772833, 17.159043060105684 ], [ -96.670681652405662, 17.159426163306673 ], [ -96.670147052292052, 17.160671243247254 ], [ -96.668409601922832, 17.162554809840785 ], [ -96.666237788961311, 17.162427111014992 ], [ -96.665937076397412, 17.16127781762755 ], [ -96.665736601354808, 17.160479693030965 ], [ -96.664801051155976, 17.15824492589665 ], [ -96.664968113691486, 17.157287160314578 ], [ -96.665519420058644, 17.15577866949959 ], [ -96.665210354367986, 17.154988502750946 ], [ -96.665302238762251, 17.154126498825001 ], [ -96.668952555163003, 17.147836941625183 ], [ -96.669165559895788, 17.146915040655227 ], [ -96.669520567783721, 17.146376265242157 ], [ -96.669954930376036, 17.145705786989634 ], [ -96.670806949307092, 17.145370546955643 ], [ -96.671341549420646, 17.14418922010789 ], [ -96.671842737027148, 17.144460606670155 ], [ -96.672210274605249, 17.144460606670155 ], [ -96.672277099619464, 17.144253075805274 ], [ -96.672268746492662, 17.141547171384026 ], [ -96.672285452746209, 17.141179995475483 ], [ -96.672669696577856, 17.140238106130607 ], [ -96.673789015565717, 17.139807070430916 ], [ -96.674139846890284, 17.138881138509358 ], [ -96.673956078101227, 17.138705530210547 ], [ -96.674507384468356, 17.1343791278921 ], [ -96.674791390778722, 17.133804395281885 ], [ -96.675325990892333, 17.131521412084599 ], [ -96.675225753371024, 17.130531578487531 ], [ -96.675643409709778, 17.12982911273723 ], [ -96.676286600471471, 17.127693760209631 ], [ -96.67737250695221, 17.127039179943974 ], [ -96.677330741318357, 17.125019545820251 ], [ -96.677272269430929, 17.12446873270672 ], [ -96.677213797543516, 17.123494827267052 ], [ -96.676862966218934, 17.122928043884702 ], [ -96.677314035064811, 17.1212436492726 ], [ -96.67743933196644, 17.120756688746049 ], [ -96.67742889055792, 17.120169939532847 ], [ -96.677721249995059, 17.119635078093278 ], [ -96.678230790728321, 17.119036350776899 ], [ -96.67864844706709, 17.118653164283089 ], [ -96.679721823857747, 17.117076503217078 ], [ -96.68041513338008, 17.116413902427027 ], [ -96.681024911634665, 17.116022727358853 ], [ -96.681718221156999, 17.115192475509385 ], [ -96.683255196483586, 17.112989096870677 ], [ -96.683154958962305, 17.111967231255342 ], [ -96.683890034118576, 17.106841851887875 ], [ -96.685143003134826, 17.098171496400791 ], [ -96.684508165499921, 17.094818212005197 ], [ -96.684023684146965, 17.092566687185435 ], [ -96.688519638618317, 17.093566850751923 ], [ -96.690716510960172, 17.093848771857541 ], [ -96.691214875519222, 17.094014035755613 ], [ -96.691530167383092, 17.094179299507093 ], [ -96.691957337005121, 17.094227906464923 ], [ -96.692353994511294, 17.093664064974462 ], [ -96.692638774259294, 17.093139107570156 ], [ -96.693045602470747, 17.092283618260705 ], [ -96.693208333755365, 17.091282301920831 ], [ -96.693381235745179, 17.090008775307393 ], [ -96.693233760518567, 17.088890786755677 ], [ -96.69317273628684, 17.088044999656212 ], [ -96.693742295782897, 17.086353413942987 ], [ -96.694406620728458, 17.080334524396807 ], [ -96.694657214531716, 17.077507912867954 ], [ -96.694996695658801, 17.075286792603571 ], [ -96.695197170701448, 17.072923241639355 ], [ -96.695869597406855, 17.068914718508434 ], [ -96.696153603717207, 17.06676269696025 ], [ -96.696784264788718, 17.0667906454511 ], [ -96.696537847548854, 17.068747029409231 ], [ -96.700263342090551, 17.069529577249604 ], [ -96.706686896580592, 17.069916857364806 ], [ -96.705968527677925, 17.07095492381174 ], [ -96.705717933874666, 17.071529850435692 ], [ -96.706152296467025, 17.077782063064653 ], [ -96.706118883959846, 17.079187384692652 ], [ -96.706344418382798, 17.080760374181082 ] ] ] ] } }
]
}
