{
"type": "FeatureCollection",
"name": "hac_guegorene",
"crs": { "type": "name", "properties": { "name": "urn:ogc:def:crs:OGC:1.3:CRS84" } },
"features": [
{ "type": "Feature", "properties": { "Hacienda": "Guegorene", "Distrito": "Ocotlan", "Fecha": "Calca de 1907", "Fuente": "Mapoteca Orozco y Berra", "Mapa Refer": "https://mapoteca-dgsiap.agricultura.gob.mx/buscador/ficha.php?fichaNum=0CF0DD35-E8D35004-57999735-BB2CFC4B&registro=MTk3OTg=&params=MCMjMCMjR3VlZ29yZW5lIyMjIyMjIyMjIw==" }, "geometry": { "type": "MultiPolygon", "coordinates": [ [ [ [ -96.536239299522876, 16.722679261542332 ], [ -96.482933113728393, 16.674349769153601 ], [ -96.520538665227107, 16.636411354542069 ], [ -96.574161396067908, 16.684720113277791 ], [ -96.536239299522876, 16.722679261542332 ] ] ] ] } }
]
}
