{
"type": "FeatureCollection",
"name": "H_Monjas",
"crs": { "type": "name", "properties": { "name": "urn:ogc:def:crs:OGC:1.3:CRS84" } },
"features": [
{ "type": "Feature", "properties": { "Hacienda": "San Isidro Monjas", "Distrito": "Centro", "Fecha": "Calca de 1909", "Fuente": "Mapoteca Orozco y Berra", "Mapa Refer": "https://mapoteca-dgsiap.agricultura.gob.mx/buscador/ficha.php?fichaNum=672162C7-7552544B-E0E66A58-8DAAA4F5&registro=MTk5Mjc=&params=MCMjMCMjIyNtb25qYXMjIyMjIyMjIw==" }, "geometry": { "type": "MultiPolygon", "coordinates": [ [ [ [ -96.747598377065302, 16.983417241139605 ], [ -96.756263783067894, 16.986179721427831 ], [ -96.763517048833037, 16.987990658650396 ], [ -96.762554225943859, 16.990998617425873 ], [ -96.762767447467212, 16.994235250551487 ], [ -96.764680859022405, 16.994570295195949 ], [ -96.764608993799655, 16.995171655876419 ], [ -96.765345612332652, 16.995197428433904 ], [ -96.765138999817282, 16.996623504425475 ], [ -96.766809866245765, 16.99670082148846 ], [ -96.766693085258822, 16.997439627370845 ], [ -96.764061021476337, 16.997319356844244 ], [ -96.763773560585435, 16.999046090576176 ], [ -96.762830329537096, 16.997448218119786 ], [ -96.761984555734514, 17.002830476768974 ], [ -96.761775944108507, 17.003835613275072 ], [ -96.761952461638174, 17.005024889962758 ], [ -96.761928391065936, 17.00588423358063 ], [ -96.761446979621354, 17.007894468433044 ], [ -96.760524274352633, 17.007779379233604 ], [ -96.758149311225992, 17.007472474356046 ], [ -96.755445383612155, 17.007035134036716 ], [ -96.752621103137244, 17.006421321340056 ], [ -96.751022051785085, 17.006540393521458 ], [ -96.748318269693044, 17.006288040526201 ], [ -96.744244571341056, 17.005530981540435 ], [ -96.739449864431194, 17.00491812426624 ], [ -96.738025872529391, 17.010145436310822 ], [ -96.735718645144189, 17.009532579036627 ], [ -96.735755655528507, 17.005807506632152 ], [ -96.736493819743529, 17.005960960497678 ], [ -96.737328266247445, 17.001311252579544 ], [ -96.740890710937393, 17.001249869525129 ], [ -96.743201485871424, 16.9902005922489 ], [ -96.744742002494107, 16.990047125479361 ], [ -96.747598377065302, 16.983417241139605 ] ] ] ] } }
]
}
