{
"type": "FeatureCollection",
"name": "H_San_jose_Snta_Catarina",
"crs": { "type": "name", "properties": { "name": "urn:ogc:def:crs:OGC:1.3:CRS84" } },
"features": [
{ "type": "Feature", "properties": { "Hacienda": "Hacienda San Jose y Santa Catarina", "Distrito": "Centro", "Fecha": "Calca 1907", "Fuente": "Mapoteca Orozco y Berra", "Mapa Refer": "https://mapoteca-dgsiap.agricultura.gob.mx/buscador/ficha.php?fichaNum=2A49D68D-37F6FF98-80D3A21D-5969FE37&registro=MTk5MjE=&params=MCMjMCMjIyNzYW4gam9zZSB5IHNhbnRhIGNhdGFyaW5hIyMjIyMjIyM=" }, "geometry": { "type": "MultiPolygon", "coordinates": [ [ [ [ -96.803459434456528, 17.075754380232716 ], [ -96.803502724165412, 17.075712998844033 ], [ -96.805667209608671, 17.073850826851874 ], [ -96.807615246507609, 17.072361075873907 ], [ -96.810558946710429, 17.07099546036034 ], [ -96.812377114482771, 17.069629834851433 ], [ -96.816186608862893, 17.067974517804725 ], [ -96.82194414014198, 17.06532597998936 ], [ -96.82350256966113, 17.062098023711926 ], [ -96.83306959532031, 17.065243212577009 ], [ -96.829303390649059, 17.074471552914808 ], [ -96.829346680357901, 17.076044049696382 ], [ -96.829346680357901, 17.081878724519793 ], [ -96.83003931569975, 17.089161466688864 ], [ -96.833675651244448, 17.093464771486861 ], [ -96.832636698231681, 17.093961300260681 ], [ -96.830299053952956, 17.09652667784442 ], [ -96.821554532762192, 17.101243570231201 ], [ -96.815320814685577, 17.102402086929327 ], [ -96.811424740887745, 17.107698071471315 ], [ -96.809952890786292, 17.106539587725447 ], [ -96.797918351721776, 17.100085046325958 ], [ -96.791271347688138, 17.096025760349765 ], [ -96.789249587521681, 17.095823271376929 ], [ -96.790483344224342, 17.09470609094026 ], [ -96.791067755294037, 17.094002677598745 ], [ -96.790937886167427, 17.093092374038097 ], [ -96.791154334711763, 17.092575154124539 ], [ -96.791695456072574, 17.092140688287625 ], [ -96.791998484034636, 17.0919337994378 ], [ -96.792366446559996, 17.09135450943625 ], [ -96.792604539958759, 17.091085552751945 ], [ -96.792864278211951, 17.090899351743101 ], [ -96.793318820155022, 17.090733839579045 ], [ -96.794011455496857, 17.089947654792265 ], [ -96.795201922490648, 17.088458032416639 ], [ -96.795656464433733, 17.087506322998969 ], [ -96.795872912978069, 17.087258050177748 ], [ -96.796673772592072, 17.086140818389921 ], [ -96.797041735117418, 17.085085648886118 ], [ -96.797247361234625, 17.084558061894473 ], [ -96.79726359487546, 17.084351164627417 ], [ -96.797112080894451, 17.084133922249883 ], [ -96.797025501476725, 17.083895989831642 ], [ -96.797501688274238, 17.083544263091923 ], [ -96.79763155740082, 17.083368399473223 ], [ -96.797777660168222, 17.082727013105149 ], [ -96.798004931139516, 17.073023188888381 ], [ -96.801121790177802, 17.075506091762943 ], [ -96.799217042987721, 17.077575152245291 ], [ -96.800429154835953, 17.077823437960724 ], [ -96.802160743190584, 17.075837142982522 ], [ -96.803459434456528, 17.075754380232716 ] ] ] ] } }
]
}
