{
"type": "FeatureCollection",
"name": "H_mantecon",
"crs": { "type": "name", "properties": { "name": "urn:ogc:def:crs:OGC:1.3:CRS84" } },
"features": [
{ "type": "Feature", "properties": { "Hacienda": "Reyes Mantecon", "Distrito": "Centro", "Fecha": "Calca de 1910", "Fuente": "Mapoteca Orozco y Berra", "Mapa Refer": "https://mapoteca-dgsiap.agricultura.gob.mx/buscador/ficha.php?fichaNum=0178086B-AF119449-1840B460-700B199C&registro=MTk4ODQ=&params=MCMjMCMjIyNNYW50ZWPDs24jIyMjIyNSb3NlbmRvIyM=" }, "geometry": { "type": "MultiPolygon", "coordinates": [ [ [ [ -96.748293105484166, 16.899628723889276 ], [ -96.740813683680599, 16.929545385322349 ], [ -96.740115303933919, 16.932023858090162 ], [ -96.742525840478947, 16.933941958089203 ], [ -96.743426975635984, 16.936528129383497 ], [ -96.744147883761599, 16.938079815097883 ], [ -96.745139132434346, 16.938941857187089 ], [ -96.743472032393882, 16.945407046932939 ], [ -96.742120329658349, 16.951010031589853 ], [ -96.741038967469905, 16.950837634551853 ], [ -96.740543343133552, 16.952992586162686 ], [ -96.738966356608742, 16.952647795565156 ], [ -96.738887507282513, 16.953692940116735 ], [ -96.73676391699415, 16.953301249093659 ], [ -96.736637104690658, 16.954534261621021 ], [ -96.736274812060614, 16.955604832937375 ], [ -96.73623060972055, 16.956763426129058 ], [ -96.735458772144185, 16.958051558825133 ], [ -96.735199800920114, 16.960595327266869 ], [ -96.734685964612865, 16.961569048700625 ], [ -96.722134513263725, 16.958945697399002 ], [ -96.722021094168767, 16.958230336755456 ], [ -96.722161923305336, 16.957554471952722 ], [ -96.723215951095895, 16.956437300243245 ], [ -96.724334244403565, 16.955663955050017 ], [ -96.726060422899465, 16.954210389464617 ], [ -96.726101202898604, 16.953082166353902 ], [ -96.725504249148855, 16.951205353605886 ], [ -96.72520980929437, 16.949946710752336 ], [ -96.72535517770244, 16.948783246775392 ], [ -96.725969678969335, 16.947561313204883 ], [ -96.726202562087735, 16.946931623968656 ], [ -96.722182714309142, 16.946743158434877 ], [ -96.685078474218358, 16.93105402480694 ], [ -96.675886895616671, 16.928726404538491 ], [ -96.661558846619911, 16.923812445015216 ], [ -96.661648960135565, 16.916225729380276 ], [ -96.648312159811539, 16.89898205773795 ], [ -96.68278057956816, 16.889368026144655 ], [ -96.73540687273865, 16.894972678111749 ], [ -96.744965723857973, 16.898132467029598 ], [ -96.748293105484166, 16.899628723889276 ] ] ] ] } }
]
}
