{
"type": "FeatureCollection",
"name": "H_candiani_compañia",
"crs": { "type": "name", "properties": { "name": "urn:ogc:def:crs:OGC:1.3:CRS84" } },
"features": [
{ "type": "Feature", "properties": { "Hacienda": "Hacienda Candidiani y La Compañia", "Distrito": "Centro", "Fecha": "Calca 1909", "Fuente": "Mapoteca Orozco y Berra", "Mapa Refer": "https://mapoteca-dgsiap.agricultura.gob.mx/buscador/ficha.php?fichaNum=AB170074-7A795CDE-1D035A8D-4AA14277&registro=MTk2NzQ=&params=MCMjMCMjY2FuZGlhbmkjIyMjIyMjIyMj" }, "geometry": { "type": "MultiPolygon", "coordinates": [ [ [ [ -96.71143916766647, 17.031219302538762 ], [ -96.717980097888457, 17.040515676473287 ], [ -96.71949256523709, 17.040928837919985 ], [ -96.721055887075025, 17.041182643925712 ], [ -96.723809390683343, 17.041282168152524 ], [ -96.727039781211758, 17.041518538191188 ], [ -96.727447750642213, 17.042769273269904 ], [ -96.72789952660348, 17.043558025729496 ], [ -96.728351302564846, 17.044609690497609 ], [ -96.728213805533144, 17.045379655593159 ], [ -96.729195927188101, 17.046262294604837 ], [ -96.72978520018107, 17.046994694024022 ], [ -96.730040551811356, 17.047651973109943 ], [ -96.730099479110663, 17.048553380668011 ], [ -96.730236976142365, 17.049004082816253 ], [ -96.730079836677561, 17.049379667109267 ], [ -96.730020909378254, 17.050450078201987 ], [ -96.729785200181041, 17.051257577248503 ], [ -96.729804842614158, 17.051614378040888 ], [ -96.72998162451205, 17.052553324238033 ], [ -96.730354830740936, 17.053022795566719 ], [ -96.730786964269129, 17.053229362577532 ], [ -96.73208336485358, 17.05443120247287 ], [ -96.732142292152872, 17.056290283326831 ], [ -96.728864461129533, 17.055926449515184 ], [ -96.728982315728146, 17.054987520274771 ], [ -96.728078763805584, 17.054818512510199 ], [ -96.728304651786203, 17.053879577699821 ], [ -96.727283245265056, 17.053635453875966 ], [ -96.727931445557331, 17.050696553571743 ], [ -96.726968966335434, 17.050489983760105 ], [ -96.72715065884158, 17.049640228268942 ], [ -96.726394425167271, 17.049433657289313 ], [ -96.725910730252266, 17.048349155899153 ], [ -96.724041762860409, 17.047921368293526 ], [ -96.724233789572153, 17.049672197566785 ], [ -96.71691603801942, 17.048622486433601 ], [ -96.717096429545649, 17.045799864075473 ], [ -96.714431539995189, 17.043536963544419 ], [ -96.714437071409748, 17.044488280072606 ], [ -96.71423683057877, 17.044641770370188 ], [ -96.707185347338751, 17.043083151296432 ], [ -96.706925117276995, 17.042328938505925 ], [ -96.702297469988864, 17.040499987766328 ], [ -96.702190004935261, 17.040159748753371 ], [ -96.702312902037121, 17.039566261672064 ], [ -96.702581818089357, 17.039309640574807 ], [ -96.703092901898202, 17.038934710047823 ], [ -96.703413628027178, 17.038382188667136 ], [ -96.703544957701311, 17.037885086327702 ], [ -96.703739903053332, 17.037227022343465 ], [ -96.703813401882329, 17.036734979547383 ], [ -96.703818225490068, 17.036346067550976 ], [ -96.703730762674269, 17.035790409076995 ], [ -96.703825224966081, 17.035315956714836 ], [ -96.704504252413145, 17.035528492500784 ], [ -96.705271349997687, 17.035859582393364 ], [ -96.705520626456817, 17.035711514283847 ], [ -96.70568857883633, 17.035521999861192 ], [ -96.705813280420458, 17.035171161149023 ], [ -96.705635934243674, 17.035031280934845 ], [ -96.705158108852615, 17.034898264746275 ], [ -96.704654505132311, 17.034359589384604 ], [ -96.704587280489903, 17.034035254291123 ], [ -96.704650415555292, 17.033757787698843 ], [ -96.704900054659149, 17.033502853116037 ], [ -96.705112101091274, 17.033484301457086 ], [ -96.705385832009938, 17.03361574909901 ], [ -96.705807395102525, 17.033549730358544 ], [ -96.705972092420936, 17.033545033459905 ], [ -96.706090646527571, 17.033456963322475 ], [ -96.706296309546616, 17.033254437396735 ], [ -96.706258475936664, 17.033015228974776 ], [ -96.70617990620427, 17.032733516164424 ], [ -96.706091515255324, 17.032451802929735 ], [ -96.706062051605684, 17.032320336608329 ], [ -96.706091515255324, 17.032160698808095 ], [ -96.706160263771167, 17.032066794156076 ], [ -96.706314035430935, 17.031902883883504 ], [ -96.706746442899643, 17.03173879388671 ], [ -96.706887033795837, 17.03190715613944 ], [ -96.707024530827539, 17.03210435602254 ], [ -96.707014709610974, 17.032301555697725 ], [ -96.707220955158519, 17.032367288876582 ], [ -96.707820049368038, 17.031334336252225 ], [ -96.708257093504415, 17.031726389397274 ], [ -96.708394590536102, 17.03129442660455 ], [ -96.709404739325365, 17.031040035102674 ], [ -96.709898350668098, 17.030909439459279 ], [ -96.710505574541926, 17.030856314254098 ], [ -96.711098581010717, 17.030862706408492 ], [ -96.711183816036169, 17.030956368070893 ], [ -96.71143916766647, 17.031219302538762 ] ] ] ] } }
]
}
