{
"type": "FeatureCollection",
"name": "hac_xaaga",
"crs": { "type": "name", "properties": { "name": "urn:ogc:def:crs:OGC:1.3:CRS84" } },
"features": [
{ "type": "Feature", "properties": { "Hacienda": "Xaaga", "Distrito": "Tlacolula", "Fecha": "Calca de 1908", "Fuente": "Mapoteca Orozco y Berra", "Mapa Refer": "https://mapoteca-dgsiap.agricultura.gob.mx/buscador/ficha.php?fichaNum=3E787AF4-A246A1FC-24E0FB0F-FD9F9570&registro=MjAyMDI=&params=MCMjMCMjVGxhY29sdWxhIyN4YWFnYSMjIyMjIyMj" }, "geometry": { "type": "MultiPolygon", "coordinates": [ [ [ [ -96.349826435749776, 16.926160805028445 ], [ -96.322934299707597, 16.928929267267485 ], [ -96.322942403598546, 16.930220303742477 ], [ -96.328888798279579, 17.008200891592313 ], [ -96.280332594688986, 16.978017338945765 ], [ -96.274905724875921, 16.956435170473529 ], [ -96.27876165869047, 16.953703073597758 ], [ -96.287524774596008, 16.93934253187123 ], [ -96.279575167344248, 16.91881368301306 ], [ -96.250744081148454, 16.916262590864761 ], [ -96.245177317826474, 16.916812359892578 ], [ -96.236336484504719, 16.891174195372585 ], [ -96.239083246091795, 16.888125387094025 ], [ -96.242544165691484, 16.869200648179955 ], [ -96.24864197641476, 16.860999339164497 ], [ -96.25962902276305, 16.862418821960446 ], [ -96.263337150905556, 16.871303490595583 ], [ -96.285915531151247, 16.864258876386657 ], [ -96.292562694192, 16.869305790856586 ], [ -96.297946346902648, 16.873327454314918 ], [ -96.31250418331409, 16.865205183116373 ], [ -96.330110925087226, 16.867965217347002 ], [ -96.355105882255344, 16.863741991888588 ], [ -96.353678139504296, 16.892120367236117 ], [ -96.351920212088572, 16.907468714487777 ], [ -96.351151118844214, 16.912672151344935 ], [ -96.35065670175851, 16.917454981719011 ], [ -96.350230475023181, 16.921539488571174 ], [ -96.349853371701343, 16.924795037436056 ], [ -96.349826435749776, 16.926160805028445 ] ] ] ] } }
]
}
