{
"type": "FeatureCollection",
"name": "H_Cinco_Se",
"crs": { "type": "name", "properties": { "name": "urn:ogc:def:crs:OGC:1.3:CRS84" } },
"features": [
{ "type": "Feature", "properties": { "Hacienda": "Cinco Señores", "Distrito": "Centro", "Fecha": "Calca de 1907", "Fuente": "Mapoteca Orozco y Berra", "Mapa Refer": "https://mapoteca-dgsiap.agricultura.gob.mx/buscador/ficha.php?fichaNum=51937A42-A40526DE-B68F0325-0CBE7D5F&registro=MTk3Mzc=&params=MCMjMCMjQ0lOQ08gIyMjIyMjIyMjIw==" }, "geometry": { "type": "MultiPolygon", "coordinates": [ [ [ [ -96.699672108313734, 17.061836017613899 ], [ -96.699869268374712, 17.060868394697465 ], [ -96.700494647005868, 17.059141241439448 ], [ -96.701800993479864, 17.056311332722355 ], [ -96.702398577505207, 17.054504420217107 ], [ -96.702537550534345, 17.053999544480671 ], [ -96.704705529789038, 17.050545094935547 ], [ -96.70577562211345, 17.048738126650498 ], [ -96.705942389748458, 17.048405961461249 ], [ -96.707185347338751, 17.043083151296432 ], [ -96.71423683057877, 17.044641770370188 ], [ -96.714437071409748, 17.044488280072606 ], [ -96.714431539995189, 17.043536963544419 ], [ -96.717096429545649, 17.045799864075473 ], [ -96.716865669839422, 17.048259808590906 ], [ -96.714540218587899, 17.047915036801552 ], [ -96.713762299774743, 17.054220982097355 ], [ -96.713915692216787, 17.054231456912444 ], [ -96.714014301643815, 17.05427335616691 ], [ -96.713630820538725, 17.056850142251658 ], [ -96.714836046868982, 17.057122483418937 ], [ -96.714485435572911, 17.058819369436911 ], [ -96.714134824276869, 17.05984587324583 ], [ -96.714047171452862, 17.06043244431709 ], [ -96.714134824276869, 17.060788575854115 ], [ -96.714507348778952, 17.060809524746901 ], [ -96.713882822407754, 17.061259925373268 ], [ -96.71300629416757, 17.062621595077061 ], [ -96.712721422489508, 17.062956773788514 ], [ -96.711505239556303, 17.062904402154523 ], [ -96.711373760320257, 17.063805192212151 ], [ -96.711242281084239, 17.065020204473552 ], [ -96.712677596077569, 17.065229688546825 ], [ -96.712370811193495, 17.066737966933655 ], [ -96.711581935777332, 17.066737966933655 ], [ -96.710354796241063, 17.067115034625804 ], [ -96.710037054753968, 17.070194392260518 ], [ -96.704821711724847, 17.069733539249356 ], [ -96.702082560974247, 17.069586903961635 ], [ -96.702082560974247, 17.067533997834662 ], [ -96.702126387386258, 17.063721397971548 ], [ -96.70193996650903, 17.062117249407418 ], [ -96.699978893197795, 17.062673966790385 ], [ -96.699672108313734, 17.061836017613899 ] ] ] ] } }
]
}
