{
"type": "FeatureCollection",
"name": "poli_aranjuez",
"crs": { "type": "name", "properties": { "name": "urn:ogc:def:crs:EPSG::3857" } },
"features": [
{ "type": "Feature", "properties": { "Hacienda": "San Miguel Aranjuez", "Distrito": "Centro", "Fecha": "Calca de 1907", "Fuente": "Mapoteca Orozco y Berra", "Mapa Ref": "https://mapoteca-dgsiap.agricultura.gob.mx/buscador/ficha.php?fichaNum=FE0BA16F-07D33DF6-F3C02D41-FA3B2A61&registro=MjAwMTM=&params=MCMjMCMjIyNBcmFuanVleiMjIyMjIyMj" }, "geometry": { "type": "MultiPolygon", "coordinates": [ [ [ [ -10756217.0, 1929516.000000004423782 ], [ -10756224.80872743204236, 1929532.88658507890068 ], [ -10756225.978374533355236, 1929567.975998097797856 ], [ -10756192.838373344391584, 1929594.098116680514067 ], [ -10756174.903784470632672, 1929626.068470770260319 ], [ -10756162.427548728883266, 1929632.306588641600683 ], [ -10756131.236959371715784, 1929644.003059649839997 ], [ -10756100.046370016410947, 1929688.449649480869994 ], [ -10756063.397427530959249, 1929729.777180369477719 ], [ -10756044.683073917403817, 1929746.932004515314475 ], [ -10756020.510367166250944, 1929810.092947956873104 ], [ -10756016.221661131829023, 1929827.637654470978305 ], [ -10755960.468482661992311, 1929870.134832468582317 ], [ -10755935.51601118221879, 1929888.069421344902366 ], [ -10755932.396952269598842, 1929909.512951528187841 ], [ -10755915.632010467350483, 1929930.566599338082597 ], [ -10755870.015773562714458, 1930003.084719590144232 ], [ -10755843.893654955551028, 1930070.144486700184643 ], [ -10755837.265654738992453, 1930095.096958184614778 ], [ -10755825.959066081792116, 1930128.626841736258939 ], [ -10755840.384713675826788, 1930149.680489553837106 ], [ -10755838.435301823541522, 1930183.210373102221638 ], [ -10755846.23294916190207, 1930265.865434895036742 ], [ -10755822.840007146820426, 1930329.806143065914512 ], [ -10755840.384713675826788, 1930353.978849821956828 ], [ -10755844.673419695347548, 1930387.508733370341361 ], [ -10755821.280477680265903, 1930409.342145919566974 ], [ -10755816.601889276877046, 1930448.330382616491988 ], [ -10755815.432242188602686, 1930469.384030431509018 ], [ -10755810.363771406933665, 1930488.878148774849251 ], [ -10755786.970829389989376, 1930526.306855997536331 ], [ -10755791.649417793378234, 1930568.414151625242084 ], [ -10755760.458828439936042, 1930594.926152578089386 ], [ -10755722.640238849446177, 1930602.723799912957475 ], [ -10755725.759297780692577, 1930630.795330332359299 ], [ -10755715.622356245294213, 1930693.176509042270482 ], [ -10755696.908002631738782, 1930736.843334135832265 ], [ -10755667.276942744851112, 1930764.914864553138614 ], [ -10755624.389882383868098, 1930805.462630710564554 ], [ -10755609.594299916177988, 1930869.996544323861599 ], [ -10755567.467056833207607, 1930923.207105531590059 ], [ -10755483.252465574070811, 1931074.481463897507638 ], [ -10755428.66893420368433, 1931132.184054202167317 ], [ -10755420.871286865323782, 1931166.493702491745353 ], [ -10755400.597403783351183, 1931260.065470553236082 ], [ -10755372.525873366743326, 1931297.494177778018638 ], [ -10755297.668458914384246, 1931369.23253329237923 ], [ -10755260.239751692861319, 1931394.18500477517955 ], [ -10755219.691985538229346, 1931437.851829870603979 ], [ -10755152.632218424230814, 1931444.08994774101302 ], [ -10755096.48915758728981, 1931523.62595059373416 ], [ -10755001.357860058546066, 1931662.424073218135163 ], [ -10754957.691034959629178, 1931729.48384033003822 ], [ -10754912.464680399745703, 1931749.757723409915343 ], [ -10754885.952679449692369, 1931784.06737170019187 ], [ -10754832.928677547723055, 1931893.234434437938035 ], [ -10754776.785616708919406, 1931944.698906872188672 ], [ -10754681.654319178313017, 1931983.687143564457074 ], [ -10754666.059024501591921, 1931989.925261434866115 ], [ -10754658.261377163231373, 1932036.711145465960726 ], [ -10754650.463729824870825, 1932077.258911625249311 ], [ -10754623.951728876680136, 1932086.616088431794196 ], [ -10754586.523021651431918, 1932124.044795656809583 ], [ -10754533.499019749462605, 1932156.794914478436112 ], [ -10754491.391724122688174, 1932214.497504784027115 ], [ -10754455.522546362131834, 1932223.854681589407846 ], [ -10754386.903249787166715, 1932256.604800411500037 ], [ -10754352.593601496890187, 1932284.676330829504877 ], [ -10754322.962541610002518, 1932286.235860297223553 ], [ -10754294.891011191532016, 1932325.224096989957616 ], [ -10754254.343245031312108, 1932387.605275697773322 ], [ -10754210.67641993612051, 1932406.319629310397431 ], [ -10754126.461828680709004, 1932479.617514292011037 ], [ -10754040.687707955017686, 1932534.201045660302043 ], [ -10754036.009119553491473, 1932568.51069395057857 ], [ -10754025.09241327829659, 1932598.141753836534917 ], [ -10753984.544647119939327, 1932605.939401175593957 ], [ -10753951.794528298079967, 1932607.498930643312633 ], [ -10753920.603938944637775, 1932621.534695852315053 ], [ -10753862.901348639279604, 1932672.999168286332861 ], [ -10753814.555935138836503, 1932718.225522849475965 ], [ -10753791.162993125617504, 1932724.463640719885007 ], [ -10753736.579461757093668, 1932736.939876462565735 ], [ -10753739.698520690202713, 1932772.809054218931124 ], [ -10753700.710283994674683, 1932805.55917303962633 ], [ -10753644.567223159596324, 1932805.55917303962633 ], [ -10753619.614751676097512, 1932819.594938250025734 ], [ -10753605.578986471518874, 1932847.666468667797744 ], [ -10753580.626514984294772, 1932894.452352698892355 ], [ -10753531.358089359477162, 1932900.042278833454475 ], [ -10753086.255673728883266, 1933301.489543767878786 ], [ -10753055.065084375441074, 1933310.846720573725179 ], [ -10753023.874495018273592, 1933320.203897380270064 ], [ -10752988.005317261442542, 1933335.799192057456821 ], [ -10752941.219433233141899, 1933335.799192057456821 ], [ -10752908.469314409419894, 1933329.561074186582118 ], [ -10752885.07637239433825, 1933321.763426847755909 ], [ -10752860.123900912702084, 1933315.525308976881206 ], [ -10752842.969076765701175, 1933331.120603654533625 ], [ -10752825.814252622425556, 1933359.192134072305635 ], [ -10752803.98084007576108, 1933365.430251942947507 ], [ -10752768.11166231893003, 1933365.430251942947507 ], [ -10752730.682955093681812, 1933360.751663539558649 ], [ -10752697.932836273685098, 1933352.954016201663762 ], [ -10752665.182717451825738, 1933360.751663539558649 ], [ -10752638.670716499909759, 1933382.585076087620109 ], [ -10752626.194480758160353, 1933401.299429700011387 ], [ -10752598.122950337827206, 1933449.644843198824674 ], [ -10752470.241533987224102, 1933499.549786164890975 ], [ -10752288.373078919947147, 1933812.941439886111766 ], [ -10752255.715468555688858, 1933932.537456576013938 ], [ -10752213.009362695738673, 1933975.250479594571516 ], [ -10752190.400247829034925, 1933996.27846030681394 ], [ -10752170.931287804618478, 1934028.477595307631418 ], [ -10752030.880381818860769, 1934071.847934383898973 ], [ -10753584.943013457581401, 1931128.447277445578948 ], [ -10755027.0, 1929048.999999999767169 ], [ -10756217.0, 1929516.000000004423782 ] ] ] ] } }
]
}
