{
"type": "FeatureCollection",
"name": "hac_zoriano",
"crs": { "type": "name", "properties": { "name": "urn:ogc:def:crs:OGC:1.3:CRS84" } },
"features": [
{ "type": "Feature", "properties": { "Hacienda": "Zoriano", "Distrito": "Tlacolula", "Fecha": "Calca de 1908", "Fuente": "Mapoteca Orozco y Berra", "Mapa Refer": "https://mapoteca-dgsiap.agricultura.gob.mx/buscador/ficha.php?fichaNum=1E63DA34-A400C7D7-29C8E083-49A14773&registro=MjAyMDA=&params=MCMjMCMjVGxhY29sdWxhIyN6b3JpYW5vIyMjIyMjIyM=" }, "geometry": { "type": "MultiPolygon", "coordinates": [ [ [ [ -96.448812376400028, 16.983916778215004 ], [ -96.439919773979582, 16.999962690180354 ], [ -96.438315851115817, 16.98715900313135 ], [ -96.437644972444843, 16.986738638531303 ], [ -96.434054614867733, 16.986181100871487 ], [ -96.440448782614595, 16.974525529471027 ], [ -96.436082905408256, 16.971906663269785 ], [ -96.434378487329553, 16.968808105307541 ], [ -96.428511769020545, 16.964595155046382 ], [ -96.428937429970404, 16.94498068069689 ], [ -96.441091900788877, 16.952327497051471 ], [ -96.445131053063207, 16.957045240974875 ], [ -96.44568626299781, 16.955646747621483 ], [ -96.448147693707895, 16.955540532511179 ], [ -96.455069310892668, 16.952212428647101 ], [ -96.460607529990313, 16.961413252871548 ], [ -96.449318261319974, 16.975273383994946 ], [ -96.448812376400028, 16.983916778215004 ] ] ] ] } }
]
}
