{
"type": "FeatureCollection",
"name": "H_san_miguel",
"crs": { "type": "name", "properties": { "name": "urn:ogc:def:crs:OGC:1.3:CRS84" } },
"features": [
{ "type": "Feature", "properties": { "Distrito": "Centro", "Fecha": "Calca 1909", "Fuente": "Mapoteca Orozco y Berra", "Hacienda": "San Miguel (La experimental)", "Mapa Refer": "https://mapoteca-dgsiap.agricultura.gob.mx/buscador/ficha.php?fichaNum=E522C0C3-6789EEA5-87C06B55-AFE3C570&registro=MTk4NzQ=&params=MCMjMCMjIyNzYW4gbWlndWVsIyMjIyMjcm9zZW5kbyMj" }, "geometry": { "type": "MultiPolygon", "coordinates": [ [ [ [ -96.715951159651908, 17.030205196905651 ], [ -96.712838794406082, 17.031155825876098 ], [ -96.711469930061838, 17.030962945026406 ], [ -96.71141229366836, 17.032919298707625 ], [ -96.708167844498448, 17.032177395382575 ], [ -96.708329541249583, 17.031318477867398 ], [ -96.707988181441621, 17.031103747872297 ], [ -96.709376950483403, 17.029227200128474 ], [ -96.703690214140664, 17.027646621796777 ], [ -96.69844147432255, 17.025251515191801 ], [ -96.673285741140646, 17.022096928415753 ], [ -96.672674566936834, 17.005722705205041 ], [ -96.698402474689928, 17.013258100069617 ], [ -96.702857234290249, 17.014417172853882 ], [ -96.708740314983274, 17.016317341008303 ], [ -96.71151158010646, 17.018325480807821 ], [ -96.711302480166168, 17.019690845592187 ], [ -96.714530847476567, 17.020821181736977 ], [ -96.714404381695999, 17.022286096980309 ], [ -96.716159774684527, 17.024136698664829 ], [ -96.716461548433088, 17.027116564889447 ], [ -96.715804739328632, 17.027683286754971 ], [ -96.715505167863711, 17.028202326682816 ], [ -96.715226791656733, 17.028588090713672 ], [ -96.715216593098845, 17.029410367673123 ], [ -96.715951159651908, 17.030205196905651 ] ] ] ] } }
]
}
