{
"type": "FeatureCollection",
"name": "hac_buenavista",
"crs": { "type": "name", "properties": { "name": "urn:ogc:def:crs:OGC:1.3:CRS84" } },
"features": [
{ "type": "Feature", "properties": { "Hacienda": "San Antonio Buenavista", "Distrito": "Tlacolula", "Fecha": "Calca de 1908", "Fuente": "Mapoteca Orozco y Berra", "Mapa Refer": "https://mapoteca-dgsiap.agricultura.gob.mx/buscador/ficha.php?fichaNum=F9AE5493-5F3237EC-2421359D-FA19E422&registro=MTk5MjU=&params=MCMjMCMjVGxhY29sdWxhIyNTYW4gQW50b25pbyBCdWVuYXZpc3RhIyMjIyMjIyM=" }, "geometry": { "type": "MultiPolygon", "coordinates": [ [ [ [ -96.64833845159707, 16.952403089631378 ], [ -96.637336734129946, 16.950775711988481 ], [ -96.625957219334467, 16.945177940495388 ], [ -96.62422237366448, 16.944439446593773 ], [ -96.617036801113883, 16.943606736123922 ], [ -96.617036801113883, 16.943349352141862 ], [ -96.617337518907846, 16.943243370399799 ], [ -96.617812336477272, 16.943288791153659 ], [ -96.617622409449496, 16.942910284535898 ], [ -96.617590754944857, 16.94254691746622 ], [ -96.617931040869792, 16.942183549694487 ], [ -96.618738230737804, 16.942077567295499 ], [ -96.618500821953106, 16.941229705953738 ], [ -96.618943985017893, 16.940881476081131 ], [ -96.618579958214667, 16.940109311890172 ], [ -96.618912330513268, 16.939927625737536 ], [ -96.619308011821118, 16.940169873902047 ], [ -96.619767002138232, 16.940911756965232 ], [ -96.620083547184521, 16.940926897405475 ], [ -96.620320955969248, 16.940457543192231 ], [ -96.620368437726185, 16.939291722821409 ], [ -96.620574192006274, 16.938716380235526 ], [ -96.620874909800236, 16.938511981787954 ], [ -96.62123893660349, 16.938405997320348 ], [ -96.621595049780552, 16.938648247444313 ], [ -96.62182454493913, 16.938716380235487 ], [ -96.622212312620832, 16.938428708282711 ], [ -96.622394326022416, 16.93808804355918 ], [ -96.622394326022416, 16.93742942334454 ], [ -96.622204398994583, 16.936626963415488 ], [ -96.622315189760812, 16.935733654940488 ], [ -96.622679216564023, 16.93576393665316 ], [ -96.62269504381635, 16.935264287770998 ], [ -96.622141089985334, 16.934158999166478 ], [ -96.622109435480709, 16.933704769090614 ], [ -96.622679216564023, 16.932432919045464 ], [ -96.623173818198808, 16.932107384616625 ], [ -96.623878130926798, 16.932183090348015 ], [ -96.624792009781743, 16.931838048410192 ], [ -96.625207620121188, 16.931789420212354 ], [ -96.625361935831279, 16.9312821901697 ], [ -96.625069131663466, 16.93007088901555 ], [ -96.624475609701676, 16.930048177044451 ], [ -96.625077045289615, 16.929222973569502 ], [ -96.625061218037303, 16.928670312338792 ], [ -96.622069960814954, 16.908533556961167 ], [ -96.625314238753518, 16.897371835657953 ], [ -96.635370791489763, 16.895147099260143 ], [ -96.637752606611542, 16.894586389198913 ], [ -96.640134421733265, 16.892940424231373 ], [ -96.645030375039113, 16.889304780394657 ], [ -96.65531178059075, 16.89809265202604 ], [ -96.654160666339152, 16.903430943997357 ], [ -96.658156002626143, 16.917124621183152 ], [ -96.65733641983482, 16.92412087862083 ], [ -96.660398753562774, 16.929473848279876 ], [ -96.663990379539996, 16.93587551075321 ], [ -96.665753083737002, 16.940684650215772 ], [ -96.665753083737002, 16.949647588420799 ], [ -96.662553729149096, 16.949763114344776 ], [ -96.658735263636473, 16.949943935752607 ], [ -96.64833845159707, 16.952403089631378 ] ] ] ] } }
]
}
