{
"type": "FeatureCollection",
"name": "H_Rosario",
"crs": { "type": "name", "properties": { "name": "urn:ogc:def:crs:OGC:1.3:CRS84" } },
"features": [
{ "type": "Feature", "properties": { "Hacienda": "Del Rosario", "Distrito": "Centro", "Fecha": "Calca de 1910", "Fuente": "Mapoteca Orozco y Berra", "Mapa Refer": "https://mapoteca-dgsiap.agricultura.gob.mx/buscador/ficha.php?fichaNum=572ADD89-96A384D1-F68871DC-9DD789A9&registro=MTk5MjI=&params=MCMjMCMjIyNkZWwgcm9zYXJpbyMjIyMjI3Jvc2VuZG8jIw==" }, "geometry": { "type": "MultiPolygon", "coordinates": [ [ [ [ -96.706690890510814, 17.042228127878548 ], [ -96.706866203640757, 17.043193763929413 ], [ -96.706370403838193, 17.045417082929969 ], [ -96.70585160705464, 17.048623387867966 ], [ -96.704612597902013, 17.050657402678464 ], [ -96.70425383197805, 17.051124779057361 ], [ -96.703854498534767, 17.051959028324049 ], [ -96.702836338820518, 17.053610397622599 ], [ -96.702398577505207, 17.054504420217107 ], [ -96.701800993479864, 17.056311332722355 ], [ -96.700494647005868, 17.059141241439448 ], [ -96.699869268374712, 17.060868394697465 ], [ -96.699672108313734, 17.061836017613899 ], [ -96.699978893197795, 17.062673966790385 ], [ -96.698095101450278, 17.063872815734666 ], [ -96.697338588905566, 17.06424781288807 ], [ -96.696694152293432, 17.064274598370204 ], [ -96.695881601782446, 17.064596023855941 ], [ -96.694620747541279, 17.065854935012233 ], [ -96.694137420082129, 17.066470994824055 ], [ -96.693745154318208, 17.068345946955684 ], [ -96.693352888554301, 17.068212022428142 ], [ -96.693997325166436, 17.064703165561511 ], [ -96.69577653059568, 17.059439756582769 ], [ -96.694123410590578, 17.059011177308204 ], [ -96.692330195669783, 17.058743314762051 ], [ -96.693408926520561, 17.054229773075399 ], [ -96.691474982091179, 17.05373241068331 ], [ -96.68857561406918, 17.052569110126626 ], [ -96.68802710265166, 17.052944089978244 ], [ -96.686950550907369, 17.053586885859204 ], [ -96.687239189556024, 17.052711010624861 ], [ -96.687874350038129, 17.048314296313723 ], [ -96.687135757492058, 17.048330709481416 ], [ -96.686602329542126, 17.04853860960549 ], [ -96.685817233020927, 17.048527667493694 ], [ -96.685450672275849, 17.048544080661387 ], [ -96.685237301095881, 17.048516725381905 ], [ -96.684947335133359, 17.0486069978042 ], [ -96.684651898114907, 17.048626146499835 ], [ -96.684449469046754, 17.048689063642652 ], [ -96.684301750537529, 17.048823104512124 ], [ -96.68387500817758, 17.04896398420146 ], [ -96.683021523457683, 17.049238904760273 ], [ -96.682304815135211, 17.049144529046053 ], [ -96.681615849386333, 17.051506721664374 ], [ -96.680389932336709, 17.051613975508641 ], [ -96.679275338963336, 17.051747822162227 ], [ -96.67493040714146, 17.051038753825384 ], [ -96.674792857055152, 17.051903828115329 ], [ -96.674010514422122, 17.054797115914461 ], [ -96.671695027721071, 17.054182216449426 ], [ -96.672937555076302, 17.049904370051916 ], [ -96.673273798022962, 17.048348993108974 ], [ -96.673096229325225, 17.04756521623959 ], [ -96.672640147135169, 17.044843858218808 ], [ -96.671424641667429, 17.040917308211547 ], [ -96.668930098931725, 17.031507474643416 ], [ -96.666756467821969, 17.021197588090622 ], [ -96.674537373318401, 17.026039367151817 ], [ -96.683358046199302, 17.031553158102632 ], [ -96.687852664028128, 17.034339012280977 ], [ -96.6904338336455, 17.035602816328758 ], [ -96.695680004790063, 17.038050425344636 ], [ -96.697953796187917, 17.0391231272882 ], [ -96.702098008408541, 17.04039551230349 ], [ -96.706289538501636, 17.042208743075975 ], [ -96.706690890510814, 17.042228127878548 ] ] ] ] } }
]
}
