{
"type": "FeatureCollection",
"name": "H_Carmen",
"crs": { "type": "name", "properties": { "name": "urn:ogc:def:crs:OGC:1.3:CRS84" } },
"features": [
{ "type": "Feature", "properties": { "Hacienda": "Del Carmen", "Distrito": "Centro", "Fecha": "Calca 1909", "Fuente": "Mapoteca Orozco y Berra", "Mapa Refer": "https://mapoteca-dgsiap.agricultura.gob.mx/buscador/ficha.php?fichaNum=2AAF2EDF-27BE2CEA-830D6C3D-525A9771&registro=MTk2Njk=&params=MCMjMCMjY2FybWVuIyMjIyMjMTkwOSMjIyM=" }, "geometry": { "type": "MultiPolygon", "coordinates": [ [ [ [ -96.728553290700418, 16.970923437928459 ], [ -96.743140304492385, 16.974411353824962 ], [ -96.743136568064585, 16.975465577944846 ], [ -96.743271079462261, 16.976094535955557 ], [ -96.742957219534375, 16.977624038686468 ], [ -96.741985748328986, 16.980411418145689 ], [ -96.73499115565005, 16.978939114509323 ], [ -96.731658262129997, 16.978567464061729 ], [ -96.726031201994033, 16.9775239781412 ], [ -96.726621557572713, 16.975051036285443 ], [ -96.726950363211486, 16.974050414714814 ], [ -96.728553290700418, 16.970923437928459 ] ] ] ] } },
{ "type": "Feature", "properties": { "Hacienda": "Rancho Sanchez", "Distrito": "Centro", "Fecha": "Calca 1909", "Fuente": "Mapoteca Orozco y Berra", "Mapa Refer": "https://mapoteca-dgsiap.agricultura.gob.mx/buscador/ficha.php?fichaNum=2AAF2EDF-27BE2CEA-830D6C3D-525A9771&registro=MTk2Njk=&params=MCMjMCMjY2FybWVuIyMjIyMjMTkwOSMjIyM=" }, "geometry": { "type": "MultiPolygon", "coordinates": [ [ [ [ -96.743140304492385, 16.974411353824962 ], [ -96.746488143723326, 16.975097493585928 ], [ -96.745318641849053, 16.981183300521437 ], [ -96.744421899197945, 16.9842707982686 ], [ -96.739325411797239, 16.995662653464297 ], [ -96.738787366206552, 16.995376793543951 ], [ -96.738279212037583, 16.992446704228563 ], [ -96.737322686543038, 16.990988789069672 ], [ -96.731583533575687, 16.98978814454501 ], [ -96.727069928898246, 16.98887336260459 ], [ -96.728325368609873, 16.984985489578612 ], [ -96.732450384805134, 16.986157577432284 ], [ -96.73499115565005, 16.978939114509323 ], [ -96.741985748328986, 16.980411418145689 ], [ -96.742957219534375, 16.977624038686468 ], [ -96.743271079462261, 16.976094535955557 ], [ -96.743140304492385, 16.974411353824962 ] ] ] ] } },
{ "type": "Feature", "properties": { "Hacienda": "Rancho Charrie", "Distrito": "Centro", "Fecha": "Calca 1909", "Fuente": "Mapoteca Orozco y Berra", "Mapa Refer": "https://mapoteca-dgsiap.agricultura.gob.mx/buscador/ficha.php?fichaNum=2AAF2EDF-27BE2CEA-830D6C3D-525A9771&registro=MTk2Njk=&params=MCMjMCMjY2FybWVuIyMjIyMjMTkwOSMjIyM=" }, "geometry": { "type": "MultiPolygon", "coordinates": [ [ [ [ -96.73499115565005, 16.978939114509323 ], [ -96.732450384805134, 16.986157577432284 ], [ -96.728325368609873, 16.984985489578612 ], [ -96.727069928898246, 16.98887336260459 ], [ -96.727069928898246, 16.98887336260459 ], [ -96.731583533575687, 16.98978814454501 ], [ -96.728994189170606, 16.998353288601965 ], [ -96.735809433319304, 16.999153682570167 ], [ -96.734255079390664, 17.005470957845485 ], [ -96.727439835241967, 17.00424182142649 ], [ -96.721356930925097, 17.001697769268254 ], [ -96.723225144781665, 16.99097806906326 ], [ -96.724644987312629, 16.985374995196153 ], [ -96.725571621385484, 16.981344108950029 ], [ -96.726438472614916, 16.977656200993252 ], [ -96.731658262129997, 16.978567464061729 ], [ -96.73499115565005, 16.978939114509323 ] ] ] ] } },
{ "type": "Feature", "properties": { "Hacienda": "Rancho La Vaquerita", "Distrito": "Centro", "Fecha": "Calca 1909", "Fuente": "Mapoteca Orozco y Berra", "Mapa Refer": "https://mapoteca-dgsiap.agricultura.gob.mx/buscador/ficha.php?fichaNum=2AAF2EDF-27BE2CEA-830D6C3D-525A9771&registro=MTk2Njk=&params=MCMjMCMjY2FybWVuIyMjIyMjMTkwOSMjIyM=" }, "geometry": { "type": "MultiPolygon", "coordinates": [ [ [ [ -96.721356930925097, 17.001697769268254 ], [ -96.720310731165398, 17.001383333457046 ], [ -96.717500937525131, 17.001297578144239 ], [ -96.71430255540271, 17.001526258891182 ], [ -96.713106898534519, 17.002212299457572 ], [ -96.713555269860109, 16.989834598196339 ], [ -96.71567756080114, 16.989948945596804 ], [ -96.717769960320467, 16.990206226992917 ], [ -96.718606920128209, 16.99036345433899 ], [ -96.719174857140615, 16.990577855052997 ], [ -96.722556324220932, 16.991553278631045 ], [ -96.722926230564539, 16.989691663847704 ], [ -96.720923505310324, 16.989119925363724 ], [ -96.721909922226573, 16.988348075645394 ], [ -96.722986013407962, 16.984946181627304 ], [ -96.723643624685451, 16.985003356826457 ], [ -96.724331127384687, 16.983831261760695 ], [ -96.725138195770754, 16.980858109722448 ], [ -96.726031201994033, 16.9775239781412 ], [ -96.726438472614916, 16.977656200993252 ], [ -96.725571621385484, 16.981344108950029 ], [ -96.724644987312629, 16.985374995196153 ], [ -96.723225144781665, 16.99097806906326 ], [ -96.721356930925097, 17.001697769268254 ] ] ] ] } }
]
}
