{
"type": "FeatureCollection",
"name": "hac_viguera",
"crs": { "type": "name", "properties": { "name": "urn:ogc:def:crs:OGC:1.3:CRS84" } },
"features": [
{ "type": "Feature", "properties": { "Hacienda": "Viguera", "Distrito": "Etla", "Fecha": "Calca 1908", "Fuente": "Mapoteca Orozco y Berra", "Mapa Refer": "https://mapoteca-dgsiap.agricultura.gob.mx/buscador/ficha.php?fichaNum=AD10164C-F5E725BF-5DDB038F-C08C41C2&registro=MjAxOTU=&params=MCMjMCMjVmlndWVyYSMjIyMjIyMjIyM=" }, "geometry": { "type": "MultiPolygon", "coordinates": [ [ [ [ -96.728200275334302, 17.11792042010666 ], [ -96.734773393779705, 17.114397657628587 ], [ -96.744547200840486, 17.111079781529881 ], [ -96.755239565386304, 17.109412284300248 ], [ -96.758952263340717, 17.116110025012791 ], [ -96.761889746337133, 17.119504375019023 ], [ -96.769222058010385, 17.115877921726771 ], [ -96.775364067911966, 17.114091394620779 ], [ -96.778119655672825, 17.12251344976897 ], [ -96.767124276595212, 17.125930246858104 ], [ -96.771328392124886, 17.131106832371746 ], [ -96.765740871057659, 17.133244385332979 ], [ -96.761258277789892, 17.1332358008321 ], [ -96.757431454679562, 17.135132965887411 ], [ -96.748779846794392, 17.138297377858439 ], [ -96.738124794834704, 17.141767877227142 ], [ -96.723330562289149, 17.14574866430927 ], [ -96.715532880153205, 17.147509369841558 ], [ -96.702888351073142, 17.140785426264063 ], [ -96.728200275334302, 17.11792042010666 ] ] ] ] } }
]
}
